satname,norad_id,inclination_deg,eccentricity,mean_motion_rev_per_day,perigee_km,apogee_km,l1,l2
STARLINK-1209,45206,53.055,0.000146,15.06387725,546.2380729186425,548.2602856829981,1 45206U 20012AE  25253.94354551  .00000751  00000+0  69305-4 0  9994,2 45206  53.0550  93.5335 0001460  89.9827 270.1330 15.06387725307357
STARLINK-1210,45207,53.031,0.0009304,15.44567356,426.3128517747373,438.98636349422395,1 45207U 20012AF  25254.22188965  .00115641  00000+0  24190-2 0  9997,2 45207  53.0310  67.9293 0009304 203.7802 156.2775 15.44567356308691
STARLINK-1231,45212,53.0515,0.0003715,15.0839607,538.5301413742536,543.6711349394036,1 45212U 20012AL  25253.87959722  .00016057  00000+0  10369-2 0  9994,2 45212  53.0515 113.5157 0003715 128.4625 231.6699 15.08396070307973
STARLINK-1271,45217,53.0534,0.0001457,15.06395165,546.2173511125811,548.2354020005105,1 45217U 20012AR  25254.05227181  .00002225  00000+0  16822-3 0  9990,2 45217  53.0534 113.0420 0001457  83.9636 276.1519 15.06395165308041
STARLINK-1191,45222,53.0542,0.0001346,15.06393986,546.2978356465646,548.1621444402845,1 45222U 20012AW  25254.26052664  .00001192  00000+0  98940-4 0  9995,2 45222  53.0542  92.1065 0001346  92.7154 267.3989 15.06393986308354
STARLINK-1212,45223,53.0547,0.0001407,15.0639496,546.2526061399676,548.2014035709344,1 45223U 20012AX  25253.94730117  .00000173  00000+0  30509-4 0  9991,2 45223  53.0547  94.1677 0001407  93.5655 266.5495 15.06394960308305
STARLINK-1215,45225,53.0531,8.83e-05,15.06409112,546.57212529969,547.795136923145,1 45225U 20012AZ  25253.83665378  .00004663  00000+0  33167-3 0  9997,2 45225  53.0531  94.0096 0000883 106.5792 253.5294 15.06409112308240
STARLINK-1217,45226,53.046,0.0004309,15.82425663,320.6954975056715,326.47104003329787,1 45226U 20012BA  25254.25004630  .00251621  00000+0  11549-2 0  9990,2 45226  53.0460  48.7742 0004309 144.9266 225.8751 15.82425663  5950
STARLINK-1221,45227,53.0699,0.0004777,15.34779223,458.30901055873346,464.8436726853188,1 45227U 20012BB  25253.81805315  .00012263  00000+0  36896-3 0  9991,2 45227  53.0699  37.3032 0004777 150.4920 209.6352 15.34779223309022
STARLINK-1222,45228,53.0552,0.0001512,15.06391644,546.1900514189747,548.2842845673758,1 45228U 20012BC  25254.26790888  .00000938  00000+0  81908-4 0  9991,2 45228  53.0552  92.0734 0001512  91.5956 268.5207 15.06391644308248
STARLINK-1226,45229,53.0536,0.0001817,15.06392431,545.9764158822218,548.4930959783269,1 45229U 20012BD  25253.96566745  .00003995  00000+0  28702-3 0  9999,2 45229  53.0536  93.4295 0001817  83.0748 277.0448 15.06392431308204
STARLINK-1227,45230,53.0526,0.0001336,15.06399546,546.2877226300016,548.1381761364773,1 45230U 20012BE  25253.82927463 -.00000077  00000+0  13748-4 0  9998,2 45230  53.0526  94.0413 0001336  91.1461 268.9681 15.06399546308305
STARLINK-1238,45233,53.0386,0.0002736,15.90275306,299.68428298992694,303.339386832391,1 45233U 20012BH  25254.25004630  .00355151  57944-4  11525-2 0  9999,2 45233  53.0386  65.4768 0002736 106.9944 181.9178 15.90275306  6044
STARLINK-1246,45235,53.0543,0.0001413,15.06431106,546.1376858882604,548.0947624494092,1 45235U 20012BK  25254.04304018  .00009766  00000+0  67302-3 0  9990,2 45235  53.0543 133.0836 0001413  95.9604 264.1546 15.06431106307787
STARLINK-1247,45236,53.0413,0.0002212,15.89500302,302.2048693017132,305.16090642010295,1 45236U 20012BL  25254.25004630  .00366296  00000+0  11770-2 0  9992,2 45236  53.0413  45.3719 0002212 129.7919 186.8696 15.89500302  6050
STARLINK-1270,45237,53.0546,0.0001182,15.06397259,546.401381528718,548.0385359137599,1 45237U 20012BM  25254.24577872  .00000145  00000+0  28643-4 0  9992,2 45237  53.0546  92.1728 0001182  89.7732 270.3392 15.06397259308355
STARLINK-1279,45360,53.0536,0.0001692,15.06393598,546.0594069197869,548.4029515116326,1 45360U 20019A   25254.20431110  .00000292  00000+0  38485-4 0  9994,2 45360  53.0536 222.3584 0001692  92.1746 267.9437 15.06393598303086
STARLINK-1301,45361,53.0542,0.0001247,15.06395109,546.3629553549436,548.0901410238621,1 45361U 20019B   25253.66155840 -.00000209  00000+0  48315-5 0  9990,2 45361  53.0542 234.7972 0001247  81.5628 278.5503 15.06395109302877
STARLINK-1306,45362,53.0518,0.0008139,15.53441352,401.16504621091735,412.2093830675076,1 45362U 20019C   25254.25004630  .00129721  00000+0  19841-2 0  9996,2 45362  53.0518 239.0122 0008139  35.0659 247.6495 15.53441352  5962
STARLINK-1262,45366,53.0534,0.0001266,15.06392688,546.3572162912242,548.1107202203857,1 45366U 20019G   25254.29001384 -.00000834  00000+0 -37130-4 0  9995,2 45366  53.0534 251.9730 0001266  85.9967 274.1167 15.06392688302698
STARLINK-1273,45367,53.0534,0.0001313,15.06397196,546.310852413726,548.1294512017912,1 45367U 20019H   25253.71500752 -.00000391  00000+0 -73707-5 0  9994,2 45367  53.0534 254.5604 0001313  88.0008 272.1131 15.06397196302600
STARLINK-1276,45368,53.0541,0.000128,15.0638966,546.3568000584792,548.1296974021534,1 45368U 20019J   25254.28264031  .00000045  00000+0  21937-4 0  9996,2 45368  53.0541 252.0104 0001280  85.2899 274.8236 15.06389660302698
STARLINK-1277,45369,53.0533,0.0001406,15.06400125,546.2374708779244,548.1848787846875,1 45369U 20019K   25254.27536294  .00004586  00000+0  32653-3 0  9999,2 45369  53.0533 252.6712 0001406  86.0614 274.0536 15.06400125302689
STARLINK-1281,45370,53.0542,0.0001464,15.0640043,546.1963692145782,548.2241108864655,1 45370U 20019L   25254.27158390 -.00004790  00000+0 -30291-3 0  9993,2 45370  53.0542 252.0590 0001464  87.9050 272.2106 15.06400430302690
STARLINK-1300,45374,53.0538,0.000137,15.06394378,546.2800134991094,548.1775637251894,1 45374U 20019Q   25254.29369911  .00000150  00000+0  28950-4 0  9996,2 45374  53.0538 251.9577 0001370  89.6488 270.4658 15.06394378302697
STARLINK-1302,45375,53.0531,0.0001217,15.06401566,546.3639440425868,548.0495727133766,1 45375U 20019R   25253.71131899  .00000650  00000+0  62504-4 0  9993,2 45375  53.0531 254.5751 0001217  75.1952 284.9172 15.06401566302600
STARLINK-1304,45376,53.0529,0.0002154,15.06400847,545.7172424862683,548.7006815267014,1 45376U 20019S   25254.26051283 -.00000021  00000+0  17485-4 0  9994,2 45376  53.0529 252.1113 0002154  84.6281 275.4954 15.06400847302687
STARLINK-1305,45377,53.0534,0.0001569,15.06402234,546.1181249440297,548.2912971729593,1 45377U 20019T   25253.42381421  .00001738  00000+0  13552-3 0  9997,2 45377  53.0534 255.8627 0001569  80.1551 279.9615 15.06402234302566
STARLINK-1319,45379,53.0534,0.0001479,15.06403768,546.1757522413245,548.2242669287589,1 45379U 20019V   25254.27896487  .00002915  00000+0  21451-3 0  9991,2 45379  53.0534 252.0275 0001479  87.2670 272.8488 15.06403768302693
STARLINK-1258,45381,53.0453,0.0007594,15.94069337,285.84436875207393,295.9733155771537,1 45381U 20019X   25254.25004630  .00357136  60878-4  94869-3 0  9998,2 45381  53.0453 183.4344 0007594 100.9354 129.2926 15.94069337  6056
STARLINK-1266,45383,53.0535,0.0001604,15.06402541,546.0929454906636,548.3145948097263,1 45383U 20019Z   25254.21446113 -.00000202  00000+0  53402-5 0  9998,2 45383  53.0535 232.3168 0001604  87.5111 272.6062 15.06402541302957
STARLINK-1267,45384,53.0544,0.0001393,15.06391915,546.2716329037503,548.2010419155531,1 45384U 20019AA  25254.19978765  .00000811  00000+0  73334-4 0  9999,2 45384  53.0544 233.0382 0001393  94.7765 265.3383 15.06391915302940
STARLINK-1272,45386,53.0544,0.0001331,15.06397376,546.2978351685488,548.1413650955037,1 45386U 20019AC  25254.20707584  .00000933  00000+0  81523-4 0  9996,2 45386  53.0544 232.3496 0001331  91.7051 268.4090 15.06397376302954
STARLINK-1274,45387,53.0417,0.0007475,15.23812898,489.21520082075403,499.4895724537755,1 45387U 20019AD  25253.64525149  .00043936  00000+0  18024-2 0  9993,2 45387  53.0417 227.3152 0007475  27.4025 332.7364 15.23812898302970
STARLINK-1280,45388,53.0535,0.0001354,15.06392588,546.2965794732982,548.1719700144995,1 45388U 20019AE  25254.26421004  .00001074  00000+0  90992-4 0  9991,2 45388  53.0535 252.0936 0001354  86.6914 273.4230 15.06392588302671
STARLINK-1283,45389,53.0547,0.0001204,15.06387505,546.4160370012023,548.0836701555436,1 45389U 20019AF  25253.91221692  .00000262  00000+0  36479-4 0  9992,2 45389  53.0547 233.6716 0001204  88.1184 271.9943 15.06387505302910
STARLINK-1284,45390,53.0545,0.0001405,15.06404333,546.2252683426241,548.1712875557278,1 45390U 20019AG  25254.21812742  .00001970  00000+0  15106-3 0  9990,2 45390  53.0545 232.2988 0001405  83.6386 276.4763 15.06404333302956
STARLINK-1292,45394,53.0512,0.0004172,15.69292685,358.10967575600444,363.73274592713096,1 45394U 20019AL  25254.25004630  .00188481  00000+0  15515-2 0  9993,2 45394  53.0512 208.9722 0004172 100.1275 285.6551 15.69292685  5946
STARLINK-1297,45395,53.0551,9.76e-05,15.06428507,546.4482839747398,547.8000949589232,1 45395U 20019AM  25253.65786374 -.00009212  00000+0 -59987-3 0  9997,2 45395  53.0551 234.8142 0000976  92.8984 267.2117 15.06428507302057
STARLINK-1307,45397,53.0529,0.0001069,15.06415342,546.4242225826611,547.9048520513397,1 45397U 20019AP  25254.24760853  .00001321  00000+0  10754-3 0  9999,2 45397  53.0529 232.1673 0001069  98.5530 261.5580 15.06415342302782
STARLINK-1312,45398,53.0506,0.0011618,15.66881968,359.9941986758631,375.6691314660211,1 45398U 20019AQ  25254.25004630  .00203319  00000+0  18378-2 0  9995,2 45398  53.0506 208.2313 0011618  41.4614 286.1580 15.66881968  5942
STARLINK-1255,45399,53.0548,0.0001133,15.06381607,546.4832820291704,548.0525787864008,1 45399U 20019AR  25254.21538921  .00004504  00000+0  32120-3 0  9994,2 45399  53.0548 222.3122 0001133  93.0557 267.0561 15.06381607302906
STARLINK-1259,45403,53.0491,0.0010757,15.78752677,326.7534438221246,341.1938786987603,1 45403U 20019AV  25254.25004630  .00203255  00000+0  11077-2 0  9990,2 45403  53.0491 191.1366 0010757  50.4272 233.0928 15.78752677  5958
